IRIDIUM 33 DEB          
1 34487U 97051GC  26073.01381863  .00000663  00000+0  18971-3 0  9999
2 34487  86.3475 333.1008 0030437 184.8465 191.3449 14.43386572895659
IRIDIUM 33 DEB          
1 34492U 97051GH  26073.37537129  .00010602  00000+0  35691-2 0  9993
2 34492  86.4713 297.5330 0183958 304.4987 179.6913 14.27869911863653
IRIDIUM 33 DEB          
1 34497U 97051GN  26073.10980972  .00002341  00000+0  90729-3 0  9992
2 34497  86.2823  13.3521 0081665  44.8705 328.2874 14.27807624881874
IRIDIUM 33 DEB          
1 34508U 97051GZ  26073.41010007  .00003603  00000+0  11325-2 0  9998
2 34508  86.3667  63.7277 0061896 231.4614 128.1028 14.39165588886274
IRIDIUM 33 DEB          
1 34521U 97051HN  26073.23623622  .00007767  00000+0  14538-2 0  9990
2 34521  86.3830 350.2337 0003548   0.4048 359.7167 14.64742681898112
IRIDIUM 33 DEB          
1 34525U 97051HS  26073.07638397  .00001411  00000+0  41417-3 0  9998
2 34525  86.3777   7.8498 0005647 127.6763 251.2623 14.43187475894050
IRIDIUM 33 DEB          
1 34529U 97051HW  26073.52086674  .00000730  00000+0  22221-3 0  9992
2 34529  86.3695 356.2926 0002774 259.5895 100.4992 14.40746173894630
IRIDIUM 33 DEB          
1 34538U 97051JF  26072.64780516  .00002905  00000+0  85010-3 0  9991
2 34538  86.2787 325.7388 0035939  26.8762   0.5962 14.43305825890676
IRIDIUM 33 DEB          
1 34540U 97051JH  26073.49186802  .00012340  00000+0  17221-2 0  9998
2 34540  86.3058 265.5746 0015282 204.9779 184.2086 14.77520864903756
IRIDIUM 33 DEB          
1 34648U 97051JZ  26072.42990240  .00006126  00000+0  28065-2 0  9991
2 34648  86.3898 245.2698 0174983  11.6217 348.8925 14.13469722862414
IRIDIUM 33 DEB          
1 34651U 97051KC  26073.49063856  .00008772  00000+0  32564-2 0  9995
2 34651  86.2777 101.4713 0131996 267.9470  90.6602 14.27362710872046
IRIDIUM 33 DEB          
1 34652U 97051KD  26073.37532556  .00003856  00000+0  74422-3 0  9999
2 34652  86.3287 299.1834 0027524 347.6061 137.0548 14.63009057898232
IRIDIUM 33 DEB          
1 34690U 97051KM  26073.52481769  .00002295  00000+0  52236-3 0  9992
2 34690  86.3821 357.0932 0012521  68.9744 108.8071 14.55486745894296
IRIDIUM 33 DEB          
1 34696U 97051KT  26072.70779624  .00036411  00000+0  55466-2 0  9991
2 34696  86.1834 344.9573 0056452 215.8948 173.2646 14.72662294880080
IRIDIUM 33 DEB          
1 34765U 97051LJ  26073.03376994  .00001396  00000+0  43011-3 0  9996
2 34765  86.3445 353.5892 0014204 281.0432  96.5170 14.40767802889285
IRIDIUM 33 DEB          
1 34833U 97051MH  26073.57039671  .00004218  00000+0  10130-2 0  9990
2 34833  86.3974  11.3926 0020479 142.0199 278.3406 14.53086548890483
