[{"OBJECT_NAME":"IRIDIUM 33 DEB","OBJECT_ID":"1997-051GC","EPOCH":"2026-03-14T00:19:53.929632","MEAN_MOTION":14.43386572,"ECCENTRICITY":0.00304376,"INCLINATION":86.3475,"RA_OF_ASC_NODE":333.1008,"ARG_OF_PERICENTER":184.8465,"MEAN_ANOMALY":191.3449,"EPHEMERIS_TYPE":0,"CLASSIFICATION_TYPE":"U","NORAD_CAT_ID":34487,"ELEMENT_SET_NO":999,"REV_AT_EPOCH":89565,"BSTAR":0.00018971089,"MEAN_MOTION_DOT":6.63e-6,"MEAN_MOTION_DDOT":0},{"OBJECT_NAME":"IRIDIUM 33 DEB","OBJECT_ID":"1997-051GH","EPOCH":"2026-03-14T09:00:32.079456","MEAN_MOTION":14.27869911,"ECCENTRICITY":0.01839585,"INCLINATION":86.4713,"RA_OF_ASC_NODE":297.533,"ARG_OF_PERICENTER":304.4987,"MEAN_ANOMALY":179.6913,"EPHEMERIS_TYPE":0,"CLASSIFICATION_TYPE":"U","NORAD_CAT_ID":34492,"ELEMENT_SET_NO":999,"REV_AT_EPOCH":86365,"BSTAR":0.0035690532,"MEAN_MOTION_DOT":0.00010602,"MEAN_MOTION_DDOT":0},{"OBJECT_NAME":"IRIDIUM 33 DEB","OBJECT_ID":"1997-051GN","EPOCH":"2026-03-14T02:38:07.559808","MEAN_MOTION":14.27807624,"ECCENTRICITY":0.00816655,"INCLINATION":86.2823,"RA_OF_ASC_NODE":13.3521,"ARG_OF_PERICENTER":44.8705,"MEAN_ANOMALY":328.2874,"EPHEMERIS_TYPE":0,"CLASSIFICATION_TYPE":"U","NORAD_CAT_ID":34497,"ELEMENT_SET_NO":999,"REV_AT_EPOCH":88187,"BSTAR":0.00090729423,"MEAN_MOTION_DOT":2.341e-5,"MEAN_MOTION_DDOT":0},{"OBJECT_NAME":"IRIDIUM 33 DEB","OBJECT_ID":"1997-051GZ","EPOCH":"2026-03-14T09:50:32.646048","MEAN_MOTION":14.39165588,"ECCENTRICITY":0.00618968,"INCLINATION":86.3667,"RA_OF_ASC_NODE":63.7277,"ARG_OF_PERICENTER":231.4614,"MEAN_ANOMALY":128.1028,"EPHEMERIS_TYPE":0,"CLASSIFICATION_TYPE":"U","NORAD_CAT_ID":34508,"ELEMENT_SET_NO":999,"REV_AT_EPOCH":88627,"BSTAR":0.0011324675,"MEAN_MOTION_DOT":3.603e-5,"MEAN_MOTION_DDOT":0},{"OBJECT_NAME":"IRIDIUM 33 DEB","OBJECT_ID":"1997-051HN","EPOCH":"2026-03-14T05:40:10.809408","MEAN_MOTION":14.64742681,"ECCENTRICITY":0.00035489,"INCLINATION":86.383,"RA_OF_ASC_NODE":350.2337,"ARG_OF_PERICENTER":0.4048,"MEAN_ANOMALY":359.7167,"EPHEMERIS_TYPE":0,"CLASSIFICATION_TYPE":"U","NORAD_CAT_ID":34521,"ELEMENT_SET_NO":999,"REV_AT_EPOCH":89811,"BSTAR":0.0014538366,"MEAN_MOTION_DOT":7.767e-5,"MEAN_MOTION_DDOT":0},{"OBJECT_NAME":"IRIDIUM 33 DEB","OBJECT_ID":"1997-051HS","EPOCH":"2026-03-14T01:49:59.575008","MEAN_MOTION":14.43187475,"ECCENTRICITY":0.00056472,"INCLINATION":86.3777,"RA_OF_ASC_NODE":7.8498,"ARG_OF_PERICENTER":127.6763,"MEAN_ANOMALY":251.2623,"EPHEMERIS_TYPE":0,"CLASSIFICATION_TYPE":"U","NORAD_CAT_ID":34525,"ELEMENT_SET_NO":999,"REV_AT_EPOCH":89405,"BSTAR":0.00041416539,"MEAN_MOTION_DOT":1.411e-5,"MEAN_MOTION_DDOT":0},{"OBJECT_NAME":"IRIDIUM 33 DEB","OBJECT_ID":"1997-051HW","EPOCH":"2026-03-14T12:30:02.886336","MEAN_MOTION":14.40746173,"ECCENTRICITY":0.00027745,"INCLINATION":86.3695,"RA_OF_ASC_NODE":356.2926,"ARG_OF_PERICENTER":259.5895,"MEAN_ANOMALY":100.4992,"EPHEMERIS_TYPE":0,"CLASSIFICATION_TYPE":"U","NORAD_CAT_ID":34529,"ELEMENT_SET_NO":999,"REV_AT_EPOCH":89463,"BSTAR":0.00022221327,"MEAN_MOTION_DOT":7.3e-6,"MEAN_MOTION_DDOT":0},{"OBJECT_NAME":"IRIDIUM 33 DEB","OBJECT_ID":"1997-051JF","EPOCH":"2026-03-13T15:32:50.365824","MEAN_MOTION":14.43305825,"ECCENTRICITY":0.00359393,"INCLINATION":86.2787,"RA_OF_ASC_NODE":325.7388,"ARG_OF_PERICENTER":26.8762,"MEAN_ANOMALY":0.5962,"EPHEMERIS_TYPE":0,"CLASSIFICATION_TYPE":"U","NORAD_CAT_ID":34538,"ELEMENT_SET_NO":999,"REV_AT_EPOCH":89067,"BSTAR":0.00085009934,"MEAN_MOTION_DOT":2.905e-5,"MEAN_MOTION_DDOT":0},{"OBJECT_NAME":"IRIDIUM 33 DEB","OBJECT_ID":"1997-051JH","EPOCH":"2026-03-14T11:48:17.396928","MEAN_MOTION":14.77520864,"ECCENTRICITY":0.00152825,"INCLINATION":86.3058,"RA_OF_ASC_NODE":265.5746,"ARG_OF_PERICENTER":204.9779,"MEAN_ANOMALY":184.2086,"EPHEMERIS_TYPE":0,"CLASSIFICATION_TYPE":"U","NORAD_CAT_ID":34540,"ELEMENT_SET_NO":999,"REV_AT_EPOCH":90375,"BSTAR":0.0017220905,"MEAN_MOTION_DOT":0.0001234,"MEAN_MOTION_DDOT":0},{"OBJECT_NAME":"IRIDIUM 33 DEB","OBJECT_ID":"1997-051JZ","EPOCH":"2026-03-13T10:19:03.567360","MEAN_MOTION":14.13469722,"ECCENTRICITY":0.01749833,"INCLINATION":86.3898,"RA_OF_ASC_NODE":245.2698,"ARG_OF_PERICENTER":11.6217,"MEAN_ANOMALY":348.8925,"EPHEMERIS_TYPE":0,"CLASSIFICATION_TYPE":"U","NORAD_CAT_ID":34648,"ELEMENT_SET_NO":999,"REV_AT_EPOCH":86241,"BSTAR":0.0028064822,"MEAN_MOTION_DOT":6.126e-5,"MEAN_MOTION_DDOT":0},{"OBJECT_NAME":"IRIDIUM 33 DEB","OBJECT_ID":"1997-051KC","EPOCH":"2026-03-14T11:46:31.171584","MEAN_MOTION":14.2736271,"ECCENTRICITY":0.01319962,"INCLINATION":86.2777,"RA_OF_ASC_NODE":101.4713,"ARG_OF_PERICENTER":267.947,"MEAN_ANOMALY":90.6602,"EPHEMERIS_TYPE":0,"CLASSIFICATION_TYPE":"U","NORAD_CAT_ID":34651,"ELEMENT_SET_NO":999,"REV_AT_EPOCH":87204,"BSTAR":0.0032563926,"MEAN_MOTION_DOT":8.772e-5,"MEAN_MOTION_DDOT":0},{"OBJECT_NAME":"IRIDIUM 33 DEB","OBJECT_ID":"1997-051KD","EPOCH":"2026-03-14T09:00:28.128384","MEAN_MOTION":14.63009057,"ECCENTRICITY":0.00275244,"INCLINATION":86.3287,"RA_OF_ASC_NODE":299.1834,"ARG_OF_PERICENTER":347.6061,"MEAN_ANOMALY":137.0548,"EPHEMERIS_TYPE":0,"CLASSIFICATION_TYPE":"U","NORAD_CAT_ID":34652,"ELEMENT_SET_NO":999,"REV_AT_EPOCH":89823,"BSTAR":0.00074422029,"MEAN_MOTION_DOT":3.856e-5,"MEAN_MOTION_DDOT":0},{"OBJECT_NAME":"IRIDIUM 33 DEB","OBJECT_ID":"1997-051KM","EPOCH":"2026-03-14T12:35:44.248416","MEAN_MOTION":14.55486745,"ECCENTRICITY":0.00125212,"INCLINATION":86.3821,"RA_OF_ASC_NODE":357.0932,"ARG_OF_PERICENTER":68.9744,"MEAN_ANOMALY":108.8071,"EPHEMERIS_TYPE":0,"CLASSIFICATION_TYPE":"U","NORAD_CAT_ID":34690,"ELEMENT_SET_NO":999,"REV_AT_EPOCH":89429,"BSTAR":0.00052235803,"MEAN_MOTION_DOT":2.295e-5,"MEAN_MOTION_DDOT":0},{"OBJECT_NAME":"IRIDIUM 33 DEB","OBJECT_ID":"1997-051KT","EPOCH":"2026-03-13T16:59:13.595136","MEAN_MOTION":14.72662294,"ECCENTRICITY":0.00564528,"INCLINATION":86.1834,"RA_OF_ASC_NODE":344.9573,"ARG_OF_PERICENTER":215.8948,"MEAN_ANOMALY":173.2646,"EPHEMERIS_TYPE":0,"CLASSIFICATION_TYPE":"U","NORAD_CAT_ID":34696,"ELEMENT_SET_NO":999,"REV_AT_EPOCH":88008,"BSTAR":0.005546642,"MEAN_MOTION_DOT":0.00036411,"MEAN_MOTION_DDOT":0},{"OBJECT_NAME":"IRIDIUM 33 DEB","OBJECT_ID":"1997-051LJ","EPOCH":"2026-03-14T00:48:37.722816","MEAN_MOTION":14.40767802,"ECCENTRICITY":0.00142045,"INCLINATION":86.3445,"RA_OF_ASC_NODE":353.5892,"ARG_OF_PERICENTER":281.0432,"MEAN_ANOMALY":96.517,"EPHEMERIS_TYPE":0,"CLASSIFICATION_TYPE":"U","NORAD_CAT_ID":34765,"ELEMENT_SET_NO":999,"REV_AT_EPOCH":88928,"BSTAR":0.00043010903,"MEAN_MOTION_DOT":1.396e-5,"MEAN_MOTION_DDOT":0},{"OBJECT_NAME":"IRIDIUM 33 DEB","OBJECT_ID":"1997-051MH","EPOCH":"2026-03-14T13:41:22.275744","MEAN_MOTION":14.53086548,"ECCENTRICITY":0.00204794,"INCLINATION":86.3974,"RA_OF_ASC_NODE":11.3926,"ARG_OF_PERICENTER":142.0199,"MEAN_ANOMALY":278.3406,"EPHEMERIS_TYPE":0,"CLASSIFICATION_TYPE":"U","NORAD_CAT_ID":34833,"ELEMENT_SET_NO":999,"REV_AT_EPOCH":89048,"BSTAR":0.0010130283,"MEAN_MOTION_DOT":4.218e-5,"MEAN_MOTION_DDOT":0}]
